QIANFAN-73              
1 63159U 25046A   26024.11815867  .00000299  00000+0  44354-3 0  9994
2 63159  88.9796 315.6441 0015772   8.3046 351.8363 13.50993585 53139
QIANFAN-74              
1 63160U 25046B   26024.10165214  .00000311  00000+0  46263-3 0  9995
2 63160  88.9796 315.5346 0001839  68.9921 291.1427 13.50990906 53194
QIANFAN-75              
1 63161U 25046C   26024.08879281  .00000158  00000+0  22557-3 0  9998
2 63161  88.9798 315.7702 0017099  10.7901 349.3614 13.50993923 53065
QIANFAN-76              
1 63162U 25046D   26024.08542232  .00000320  00000+0  47660-3 0  9995
2 63162  88.9796 315.7508 0014666  12.2909 347.8597 13.50996500 53078
QIANFAN-77              
1 63163U 25046E   26024.11558338  .00000796  00000+0  57009-3 0  9999
2 63163  88.9795 313.4074 0013730 316.2205  43.7882 13.96135695 54360
QIANFAN-78              
1 63164U 25046F   26024.12633897  .00000326  00000+0  48626-3 0  9999
2 63164  88.9795 315.6102 0016091  13.6617 346.4966 13.50995577 53150
QIANFAN-79              
1 63165U 25046G   26024.15500810  .00000322  00000+0  48029-3 0  9994
2 63165  88.9800 315.7164 0015759  12.1340 348.0187 13.50992678 53101
QIANFAN-80              
1 63166U 25046H   26024.09746595  .00000325  00000+0  48378-3 0  9990
2 63166  88.9797 315.4282 0014829  16.6242 343.5392 13.50995342 53257
